NORAD_CAT_ID,OBJECT_NAME,OBJECT_TYPE,EPOCH,MEAN_MOTION,ECCENTRICITY,INCLINATION,RA_OF_ASC_NODE,ARG_OF_PERICENTER,MEAN_ANOMALY,BSTAR,MEAN_MOTION_DOT,MEAN_MOTION_DDOT,TLE_LINE0,TLE_LINE1,TLE_LINE2,SEMIMAJOR_AXIS,PERIOD,APOGEE,PERIGEE,DECAYED
49736.0,STARLINK-3148,PAYLOAD,2023-03-31 06:17:27,15.08839475,0.0001409,53.2158,292.4221,90.3417,269.7737,0.0013017,0.00020489,0.0,0 STARLINK-3148,1 49736U 21115N   23090.26212293  .00020489  00000-0  13017-2 0  9997,2 49736  53.2158 292.4221 0001409  90.3417 269.7737 15.08839475 74445,6917.882,95.438,540.722,538.772,0.0
49736.0,STARLINK-3148,PAYLOAD,2023-03-31 20:35:55,15.08840871,0.0001174,53.2152,289.7467,103.5696,256.5427,0.00048144,7.383e-05,0.0,0 STARLINK-3148,1 49736U 21115N   23090.85828174  .00007383  00000-0  48144-3 0  9991,2 49736  53.2152 289.7467 0001174 103.5696 256.5427 15.08840871 74537,6917.878,95.437,540.555,538.931,0.0
49736.0,STARLINK-3148,PAYLOAD,2023-04-01 06:08:14,15.08831695,0.0001636,53.2146,287.9633,86.8176,273.3003,-2.6766e-05,-7.14e-06,0.0,0 STARLINK-3148,1 49736U 21115N   23091.25572497 -.00000714  00000-0 -26766-4 0  9990,2 49736  53.2146 287.9633 0001636  86.8176 273.3003 15.08831695 74591,6917.906,95.438,540.903,538.639,0.0
49736.0,STARLINK-3148,PAYLOAD,2023-04-01 18:51:20,15.08828804,0.0001368,53.2167,285.5838,81.9661,278.1486,2.9011e-05,1.74e-06,0.0,0 STARLINK-3148,1 49736U 21115N   23091.78564977  .00000174  00000-0  29011-4 0  9996,2 49736  53.2167 285.5838 0001368  81.9661 278.1486 15.08828804 73564,6917.915,95.438,540.726,538.833,0.0
49736.0,STARLINK-3148,PAYLOAD,2023-04-02 12:20:34,15.08847088,0.0001364,53.2161,282.3125,72.7799,287.3343,0.00061147,9.459e-05,0.0,0 STARLINK-3148,1 49736U 21115N   23092.51428941  .00009459  00000-0  61147-3 0  9998,2 49736  53.2161 282.3125 0001364  72.7799 287.3343 15.08847088 74782,6917.859,95.437,540.667,538.78,0.0
49736.0,STARLINK-3148,PAYLOAD,2023-04-02 20:17:29,15.08859575,0.0001373,53.2157,280.826,67.8192,292.2946,0.00093118,0.00014571,0.0,0 STARLINK-3148,1 49736U 21115N   23092.84548611  .00014571  00000-0  93118-3 0  9995,2 49736  53.2157 280.8260 0001373  67.8192 292.2946 15.08859575 73723,6917.821,95.436,540.635,538.736,0.0
49736.0,STARLINK-3148,PAYLOAD,2023-04-03 12:11:21,15.08847147,0.0001527,53.214,277.8543,65.094,295.021,0.00013789,1.908e-05,0.0,0 STARLINK-3148,1 49736U 21115N   23093.50788541  .00001908  00000-0  13789-3 0  9993,2 49736  53.2140 277.8543 0001527  65.0940 295.0210 15.08847147 74938,6917.859,95.437,540.78,538.667,0.0
49736.0,STARLINK-3148,PAYLOAD,2023-04-03 18:32:53,15.08851988,0.0001849,53.2147,276.6625,77.475,282.6448,0.00031736,4.768e-05,0.0,0 STARLINK-3148,1 49736U 21115N   23093.77284537  .00004768  00000-0  31736-3 0  9997,2 49736  53.2147 276.6625 0001849  77.4750 282.6448 15.08851988 73860,6917.844,95.437,540.988,538.43,0.0
49736.0,STARLINK-3148,PAYLOAD,2023-04-04 12:02:08,15.08839014,0.000137,53.2142,273.3916,69.3253,290.7886,0.00032521,4.891e-05,0.0,0 STARLINK-3148,1 49736U 21115N   23094.50148869  .00004891  00000-0  32521-3 0  9996,2 49736  53.2142 273.3916 0001370  69.3253 290.7886 15.08839014 75087,6917.883,95.438,540.696,538.801,0.0
49736.0,STARLINK-3148,PAYLOAD,2023-04-05 11:52:55,15.08847583,0.0001363,53.2134,268.9293,77.4764,282.6381,0.0003181,4.779e-05,0.0,0 STARLINK-3148,1 49736U 21115N   23095.49508585  .00004779  00000-0  31810-3 0  9995,2 49736  53.2134 268.9293 0001363  77.4764 282.6381 15.08847583 74129,6917.857,95.437,540.665,538.779,0.0
49736.0,STARLINK-3148,PAYLOAD,2023-04-05 15:03:41,15.08851409,0.0001207,53.2146,268.3349,78.8944,281.2184,0.00035871,5.427e-05,0.0,0 STARLINK-3148,1 49736U 21115N   23095.62756386  .00005427  00000-0  35871-3 0  9996,2 49736  53.2146 268.3349 0001207  78.8944 281.2184 15.08851409 75253,6917.846,95.437,540.546,538.876,0.0
49736.0,STARLINK-3148,PAYLOAD,2023-04-05 18:14:27,15.08857389,0.0001189,53.2157,267.7389,90.797,269.3158,0.00045417,6.951e-05,0.0,0 STARLINK-3148,1 49736U 21115N   23095.76004073  .00006951  00000-0  45417-3 0  9990,2 49736  53.2157 267.7389 0001189  90.7970 269.3158 15.08857389 74163,6917.827,95.436,540.515,538.87,0.0
49736.0,STARLINK-3148,PAYLOAD,2023-04-06 11:43:42,15.08840865,8.33e-05,53.2148,264.4684,75.0912,285.0172,7.7646e-05,9.48e-06,0.0,0 STARLINK-3148,1 49736U 21115N   23096.48868605  .00000948  00000-0  77646-4 0  9999,2 49736  53.2148 264.4684 0000833  75.0912 285.0172 15.08840865 75389,6917.878,95.437,540.319,539.166,0.0
49736.0,STARLINK-3148,PAYLOAD,2023-04-06 18:05:14,15.08841886,9.3e-05,53.2153,263.278,97.1532,262.9566,7.432e-05,8.95e-06,0.0,0 STARLINK-3148,1 49736U 21115N   23096.75364487  .00000895  00000-0  74320-4 0  9995,2 49736  53.2153 263.2780 0000930  97.1532 262.9566 15.08841886 74317,6917.875,95.437,540.383,539.096,0.0
49736.0,STARLINK-3148,PAYLOAD,2023-04-07 11:34:29,15.08837295,0.0001182,53.2167,260.0081,105.328,254.7843,4.9372e-05,4.98e-06,0.0,0 STARLINK-3148,1 49736U 21115N   23097.48228794  .00000498  00000-0  49372-4 0  9994,2 49736  53.2167 260.0081 0001182 105.3280 254.7843 15.08837295 74421,6917.889,95.438,540.571,538.936,0.0
49736.0,STARLINK-3148,PAYLOAD,2023-04-07 19:31:25,15.08841645,0.0001213,53.216,258.5209,103.3685,256.7443,0.0001094,1.454e-05,0.0,0 STARLINK-3148,1 49736U 21115N   23097.81348702  .00001454  00000-0  10940-3 0  9994,2 49736  53.2160 258.5209 0001213 103.3685 256.7443 15.08841645 75580,6917.875,95.437,540.579,538.901,0.0
49736.0,STARLINK-3148,PAYLOAD,2023-04-08 03:28:21,15.08833091,0.0001203,53.216,257.0332,101.0866,259.0261,0.00013729,1.897e-05,0.0,0 STARLINK-3148,1 49736U 21115N   23098.14469125  .00001897  00000-0  13729-3 0  9993,2 49736  53.2160 257.0332 0001203 101.0866 259.0261 15.08833091 75632,6917.902,95.438,540.599,538.934,0.0
49736.0,STARLINK-3148,PAYLOAD,2023-04-08 09:49:53,15.08834744,0.0001178,53.2155,255.8444,96.4678,263.6448,8.9788e-05,1.141e-05,0.0,0 STARLINK-3148,1 49736U 21115N   23098.40965251  .00001141  00000-0  89788-4 0  9994,2 49736  53.2155 255.8444 0001178  96.4678 263.6448 15.08834744 74560,6917.896,95.438,540.576,538.947,0.0
49736.0,STARLINK-3148,PAYLOAD,2023-04-09 11:16:04,15.08829422,0.0001161,53.2177,251.0874,83.9676,276.1449,-5.6738e-06,-3.78e-06,0.0,0 STARLINK-3148,1 49736U 21115N   23099.46949947 -.00000378  00000-0 -56738-5 0  9998,2 49736  53.2177 251.0874 0001161  83.9676 276.1449 15.08829422 75838,6917.913,95.438,540.581,538.975,0.0
49736.0,STARLINK-3148,PAYLOAD,2023-04-09 17:37:37,15.08835746,0.0001338,53.2177,249.8976,79.0777,281.0366,5.3922e-05,5.7e-06,0.0,0 STARLINK-3148,1 49736U 21115N   23099.73445842  .00000570  00000-0  53922-4 0  9996,2 49736  53.2177 249.8976 0001338  79.0777 281.0366 15.08835746 74760,6917.893,95.438,540.684,538.833,0.0
49736.0,STARLINK-3148,PAYLOAD,2023-04-10 09:31:28,15.08841711,0.0001518,53.2168,246.923,70.7985,289.3171,0.00017576,2.51e-05,0.0,0 STARLINK-3148,1 49736U 21115N   23100.39685899  .00002510  00000-0  17576-3 0  9999,2 49736  53.2168 246.9230 0001518  70.7985 289.3171 15.08841711 75978,6917.875,95.437,540.79,538.69,0.0
49736.0,STARLINK-3148,PAYLOAD,2023-04-10 15:53:00,15.08850263,0.0001375,53.2167,245.7344,67.4271,292.6866,0.0002907,4.343e-05,0.0,0 STARLINK-3148,1 49736U 21115N   23100.66181485  .00004343  00000-0  29070-3 0  9999,2 49736  53.2167 245.7344 0001375  67.4271 292.6866 15.08850263 74904,6917.849,95.437,540.665,538.763,0.0
49736.0,STARLINK-3148,PAYLOAD,2023-04-11 09:22:15,15.08842063,0.000204,53.2153,242.4673,60.3145,299.805,5.996e-05,6.66e-06,0.0,0 STARLINK-3148,1 49736U 21115N   23101.39045860  .00000666  00000-0  59960-4 0  9992,2 49736  53.2153 242.4673 0002040  60.3145 299.8050 15.08842063 75016,6917.874,95.437,541.15,538.328,0.0
49736.0,STARLINK-3148,PAYLOAD,2023-04-12 02:51:30,15.08842152,0.0002079,53.2154,239.1963,50.9336,309.1841,8.9853e-05,1.142e-05,0.0,0 STARLINK-3148,1 49736U 21115N   23102.11909863  .00001142  00000-0  89853-4 0  9999,2 49736  53.2154 239.1963 0002079  50.9336 309.1841 15.08842152 76238,6917.874,95.437,541.177,538.301,0.0
49736.0,STARLINK-3148,PAYLOAD,2023-04-12 12:23:48,15.08842042,0.0001526,53.2157,237.409,70.6177,289.498,2.2592e-05,7.2e-07,0.0,0 STARLINK-3148,1 49736U 21115N   23102.51653642  .00000072  00000-0  22592-4 0  9992,2 49736  53.2157 237.4090 0001526  70.6177 289.4980 15.08842042 75186,6917.874,95.437,540.795,538.683,0.0
49736.0,STARLINK-3148,PAYLOAD,2023-04-12 18:45:20,15.08853045,0.0001291,53.2165,236.22,66.1584,293.9544,9.8581e-05,1.282e-05,0.0,0 STARLINK-3148,1 49736U 21115N   23102.78148671  .00001282  00000-0  98581-4 0  9997,2 49736  53.2165 236.2200 0001291  66.1584 293.9544 15.08853045 76335,6917.841,95.437,540.599,538.812,0.0
49736.0,STARLINK-3148,PAYLOAD,2023-04-13 09:03:49,15.08834636,0.0001355,53.2156,233.5425,78.5436,281.5708,2.9128e-05,1.76e-06,0.0,0 STARLINK-3148,1 49736U 21115N   23103.37766015  .00000176  00000-0  29128-4 0  9993,2 49736  53.2156 233.5425 0001355  78.5436 281.5708 15.08834636 75315,6917.897,95.438,540.699,538.824,0.0
49736.0,STARLINK-3148,PAYLOAD,2023-04-13 15:25:21,15.08843146,0.0001536,53.2168,232.3555,77.6092,282.5072,0.00011018,1.466e-05,0.0,0 STARLINK-3148,1 49736U 21115N   23103.64261391  .00001466  00000-0  11018-3 0  9991,2 49736  53.2168 232.3555 0001536  77.6092 282.5072 15.08843146 76466,6917.871,95.437,540.798,538.673,0.0
49736.0,STARLINK-3148,PAYLOAD,2023-04-14 12:05:23,15.0883463,0.00011,53.218,228.4888,73.5081,286.6032,9.8877e-05,1.286e-05,0.0,0 STARLINK-3148,1 49736U 21115N   23104.50374020  .00001286  00000-0  98877-4 0  9990,2 49736  53.2180 228.4888 0001100  73.5081 286.6032 15.08834630 75485,6917.897,95.438,540.523,539.001,0.0
49736.0,STARLINK-3148,PAYLOAD,2023-04-14 18:26:54,15.08851995,0.0001176,53.2161,227.295,96.5949,263.5177,0.00010187,1.334e-05,0.0,0 STARLINK-3148,1 49736U 21115N   23104.76868733  .00001334  00000-0  10187-3 0  9998,2 49736  53.2161 227.2950 0001176  96.5949 263.5177 15.08851995 76637,6917.844,95.437,540.522,538.895,0.0
